0 FALCON 9 DEB
1 39277U 13055M   13282.19456074  .01152705  00000-0  15567+0 0   214
2 39277 080.9804 306.2189 0681778 146.2248 218.4753 13.82018532  1310
0 FALCON 9 DEB
1 39277U 13055M   13282.55645435  .02279100  00000-0  30993+0 0   226
2 39277 080.9810 305.8731 0668688 145.1649 220.4987 13.83861705  1369
0 FALCON 9 DEB
1 39277U 13055M   13283.06198868  .01588186  00000-0  21923+0 0   236
2 39277 080.9787 305.3836 0661015 143.8106 220.2684 13.85299656  1435
0 FALCON 9 DEB
1 39277U 13055M   13283.27876590  .01519337  00000-0  21046+0 0   243
2 39277 080.9792 305.1763 0657960 143.2003 221.5391 13.85860748  1460
0 FALCON 9 DEB
1 39277U 13055M   13283.71181659  .01423295  00000-0  19183+0 0   254
2 39277 080.9771 304.7556 0656029 141.9141 222.9330 13.86922204  1527
0 FALCON 9 DEB
1 39277U 13055M   13284.07243313  .01334344  00000-0  17851+0 0   267
2 39277 080.9783 304.3997 0653975 140.8982 223.8253 13.87696306  1574
0 FALCON 9 DEB
1 39277U 13055M   13284.21668543  .01290422  00000-0  17325+0 0   274
2 39277 080.9818 304.2523 0652320 140.7112 224.2268 13.87965085  1590
0 FALCON 9 DEB
1 39277U 13055N   13285.29740602  .01051778  00000-0  14225+0 0   309
2 39277 080.9788 303.2058 0641527 137.5296 227.6691 13.89869035  1746
0 FALCON 9 DEB
1 39277U 13055N   13285.80119073  .01003627  00000-0  13831+0 0   311
2 39277 080.9816 302.7086 0634132 135.9795 229.2148 13.90749552  1819
0 FALCON 9 DEB
1 39277U 13055N   13286.08894824  .00995800  00000-0  13682+0 0   323
2 39277 080.9798 302.4276 0632036 135.0324 230.2872 13.91261731  1855
0 FALCON 9 DEB
1 39277U 13055N   13286.30469389  .00977303  00000-0  13275+0 0   339
2 39277 080.9813 302.2205 0632326 134.7522 230.6492 13.91619058  1885
0 FALCON 9 DEB
1 39277U 13055N   13286.80786816  .00938788  00000-0  12933+0 0   346
2 39277 080.9798 301.7251 0625851 133.0677 232.4095 13.92455162  1952
0 FALCON 9 DEB
1 39277U 13055N   13287.09525631  .00923534  00000-0  12703+0 0   353
2 39277 080.9783 301.4449 0623846 132.1865 233.2799 13.92916491  1994
0 FALCON 9 DEB
1 39277U 13055N   13287.23893521  .00900947  00000-0  12491+0 0   363
2 39277 080.9758 301.2918 0621628 131.7836 233.7320 13.93116397  2011
0 FALCON 9 DEB
1 39277U 13055N   13287.81337784  .00879204  00000-0  12169+0 0   375
2 39277 080.9773 300.7327 0615810 130.2360 235.5176 13.94019335  2090
0 FALCON 9 DEB
1 39277U 13055N   13288.53081927  .01611736  00000-0  21899+0 0   386
2 39277 080.9789 300.0380 0604843 127.9607 239.7929 13.96456042  2195
0 FALCON 9 DEB
1 39277U 13055N   13288.74532074  .01519316  00000-0  20132+0 0   394
2 39277 080.9773 299.8188 0607244 127.3371 238.3084 13.96966482  2224
0 FALCON 9 DEB
1 39277U 13055N   13289.10334378  .01504482  00000-0  19875+0 0   404
2 39277 080.9684 299.4643 0602994 126.3705 239.2260 13.97891541  2279
0 FALCON 9 DEB
1 39277U 13055N   13289.17496352  .01457659  00000-0  19819+0 0   414
2 39277 080.9801 299.3997 0597754 125.7532 239.8297 13.97982976  2289
0 FALCON 9 DEB
1 39277U 13055N   13290.17602205  .00873646  00000-0  11940+0 0   427
2 39277 080.9823 298.3937 0591385 122.9140 239.8820 13.99358187  2425
0 FALCON 9 DEB
1 39277U 13055N   13290.67701427  .00957102  00000-0  12857+0 0   437
2 39277 080.9780 297.9051 0588483 122.0231 244.1993 14.00315833  2497
0 FALCON 9 DEB
1 39277U 13055N   13291.10556492  .00925829  00000-0  12467+0 0   445
2 39277 080.9787 297.4801 0584785 120.4397 245.2976 14.00990605  2554
0 FALCON 9 DEB
1 39277U 13055N   13291.81948668  .00935832  00000-0  12603+0 0   451
2 39277 080.9729 296.7723 0578019 118.1425 247.8772 14.02236235  2651
0 FALCON 9 DEB
1 39277U 13055N   13292.10486771  .00908312  00000-0  12157+0 0   464
2 39277 080.9727 296.4903 0577105 117.4198 248.5561 14.02667664  2692
0 FALCON 9 DEB
1 39277U 13055N   13292.39017638  .00807328  00000-0  10915+0 0   473
2 39277 080.9721 296.2004 0573094 116.5256 249.3881 14.02995760  2734
0 FALCON 9 DEB
1 39277U 13055N   13292.81802179  .00799862  00000-0  10781+0 0   487
2 39277 080.9726 295.7741 0570419 115.2262 250.8751 14.03617653  2794
0 FALCON 9 DEB
1 39277U 13055N   13293.10312501  .00784351  00000-0  10514+0 0   497
2 39277 080.9693 295.4884 0569516 114.3381 251.7416 14.04008159  2839
0 FALCON 9 DEB
1 39277U 13055N   13293.38815971  .00776353  00000-0  10384+0 0   506
2 39277 080.9705 295.2044 0567881 113.6593 252.4779 14.04402970  2872
0 FALCON 9 DEB
1 39277U 13055N   13293.81556976  .00740105  00000-0  99890-1 0   519
2 39277 080.9702 294.7769 0563801 112.1399 254.0175 14.04945351  2933
0 FALCON 9 DEB
1 39277U 13055N   13294.10040645  .00734159  00000-0  98779-1 0   521
2 39277 080.9693 294.4926 0562396 111.2546 254.9184 14.05326294  2979
0 FALCON 9 DEB
1 39277U 13055N   13294.38516654  .00731414  00000-0  98407-1 0   539
2 39277 080.9694 294.2075 0560385 110.3899 255.8027 14.05708299  3011
0 FALCON 9 DEB
1 39277U 13055N   13294.81216095  .00728710  00000-0  97920-1 0   548
2 39277 080.9690 293.7793 0557547 109.0853 257.1482 14.06284646  3071
0 FALCON 9 DEB
1 39277U 13055N   13295.09671909  .00724927  00000-0  96965-1 0   553
2 39277 080.9698 293.4931 0556402 108.2893 257.9245 14.06661466  3113
0 FALCON 9 DEB
1 39277U 13055N   13295.38120739  .00715803  00000-0  95640-1 0   568
2 39277 080.9700 293.2055 0554764 107.4611 258.7362 14.07024325  3151
0 FALCON 9 DEB
1 39277U 13055N   13295.87889262  .00703938  00000-0  94285-1 0   576
2 39277 080.9705 292.7059 0551031 105.8971 260.3307 14.07662851  3227
0 FALCON 9 DEB
1 39277U 13055N   13296.09211540  .00720174  00000-0  96011-1 0   580
2 39277 080.9709 292.4893 0549959 105.1835 261.1388 14.07980671  3256
